{"type": "FeatureCollection", "features": [ {"type": "Feature", "properties": {"norad_id": 31985, "name": "FENGYUN 1C DEB", "group": "fengyun-1c-debris", "lat": 75.0620459309209, "lon": -131.57717839479085, "alt_km": 872.8571940424754, "timestamp": "2025-12-26T22:28:06.069882+00:00", "meta": {"OBJECT_NAME": "FENGYUN 1C DEB", "OBJECT_ID": "1999-025CPN", "EPOCH": "2025-12-23T13:05:30.625440", "MEAN_MOTION": 14.22990386, "ECCENTRICITY": 0.01508831, "INCLINATION": 98.2195, "RA_OF_ASC_NODE": 258.061, "ARG_OF_PERICENTER": 214.7786, "MEAN_ANOMALY": 144.346, "EPHEMERIS_TYPE": 0, "CLASSIFICATION_TYPE": "U", "NORAD_CAT_ID": 31985, "ELEMENT_SET_NO": 999, "REV_AT_EPOCH": 95764, "BSTAR": 0.00026019142, "MEAN_MOTION_DOT": 6.17e-06, "MEAN_MOTION_DDOT": 0}, "tle": {"line1": "1 31985U 99025CPN 25357.54549335  .00000617  00000+0  26019-3 0  9995", "line2": "2 31985  98.2195 258.0610 0150883 214.7786 144.3460 14.22990386957641"}}, "geometry": {"type": "Point", "coordinates": [-131.57717839479085, 75.0620459309209]}}, {"type": "Feature", "properties": {"norad_id": 31987, "name": "FENGYUN 1C DEB", "group": "fengyun-1c-debris", "lat": -79.53378003043944, "lon": 95.9160172576183, "alt_km": 781.2870237022325, "timestamp": "2025-12-26T22:28:06.069892+00:00", "meta": {"OBJECT_NAME": "FENGYUN 1C DEB", "OBJECT_ID": "1999-025CPQ", "EPOCH": "2025-12-26T10:18:46.431648", "MEAN_MOTION": 14.44997965, "ECCENTRICITY": 0.00522192, "INCLINATION": 99.0404, "RA_OF_ASC_NODE": 334.9036, "ARG_OF_PERICENTER": 116.8195, "MEAN_ANOMALY": 34.3869, "EPHEMERIS_TYPE": 0, "CLASSIFICATION_TYPE": "U", "NORAD_CAT_ID": 31987, "ELEMENT_SET_NO": 999, "REV_AT_EPOCH": 96567, "BSTAR": 0.00098607497, "MEAN_MOTION_DOT": 3.449e-05, "MEAN_MOTION_DDOT": 0}, "tle": {"line1": "1 31987U 99025CPQ 25360.42970407  .00003449  00000+0  98607-3 0  9994", "line2": "2 31987  99.0404 334.9036 0052219 116.8195  34.3869 14.44997965965678"}}, "geometry": {"type": "Point", "coordinates": [95.9160172576183, -79.53378003043944]}}, {"type": "Feature", "properties": {"norad_id": 31989, "name": "FENGYUN 1C DEB", "group": "fengyun-1c-debris", "lat": 76.80785194231426, "lon": -74.1538668391747, "alt_km": 988.1244455981641, "timestamp": "2025-12-26T22:28:06.069902+00:00", "meta": {"OBJECT_NAME": "FENGYUN 1C DEB", "OBJECT_ID": "1999-025CPS", "EPOCH": "2025-12-26T15:49:47.629920", "MEAN_MOTION": 13.93609535, "ECCENTRICITY": 0.01153977, "INCLINATION": 99.2116, "RA_OF_ASC_NODE": 61.7596, "ARG_OF_PERICENTER": 261.0092, "MEAN_ANOMALY": 251.9301, "EPHEMERIS_TYPE": 0, "CLASSIFICATION_TYPE": "U", "NORAD_CAT_ID": 31989, "ELEMENT_SET_NO": 999, "REV_AT_EPOCH": 93911, "BSTAR": 0.00051320291, "MEAN_MOTION_DOT": 6.66e-06, "MEAN_MOTION_DDOT": 0}, "tle": {"line1": "1 31989U 99025CPS 25360.65957905  .00000666  00000+0  51320-3 0  9998", "line2": "2 31989  99.2116  61.7596 0115397 261.0092 251.9301 13.93609535939118"}}, "geometry": {"type": "Point", "coordinates": [-74.1538668391747, 76.80785194231426]}}, {"type": "Feature", "properties": {"norad_id": 31990, "name": "FENGYUN 1C DEB", "group": "fengyun-1c-debris", "lat": 40.72725211203706, "lon": -149.55113134289545, "alt_km": 851.705490772486, "timestamp": "2025-12-26T22:28:06.069913+00:00", "meta": {"OBJECT_NAME": "FENGYUN 1C DEB", "OBJECT_ID": "1999-025CPT", "EPOCH": "2025-12-26T07:44:19.802688", "MEAN_MOTION": 13.57209467, "ECCENTRICITY": 0.02605229, "INCLINATION": 99.1596, "RA_OF_ASC_NODE": 21.8922, "ARG_OF_PERICENTER": 149.8306, "MEAN_ANOMALY": 232.1284, "EPHEMERIS_TYPE": 0, "CLASSIFICATION_TYPE": "U", "NORAD_CAT_ID": 31990, "ELEMENT_SET_NO": 999, "REV_AT_EPOCH": 62956, "BSTAR": 0.00028173223, "MEAN_MOTION_DOT": 2.12e-06, "MEAN_MOTION_DDOT": 0}, "tle": {"line1": "1 31990U 99025CPT 25360.32245142  .00000212  00000+0  28173-3 0  9994", "line2": "2 31990  99.1596  21.8922 0260522 149.8306 232.1284 13.57209467629569"}}, "geometry": {"type": "Point", "coordinates": [-149.55113134289545, 40.72725211203706]}}, {"type": "Feature", "properties": {"norad_id": 31991, "name": "FENGYUN 1C DEB", "group": "fengyun-1c-debris", "lat": 7.930341475719717, "lon": -170.51340116612522, "alt_km": 854.336238867998, "timestamp": "2025-12-26T22:28:06.069923+00:00", "meta": {"OBJECT_NAME": "FENGYUN 1C DEB", "OBJECT_ID": "1999-025CPU", "EPOCH": "2025-12-22T17:53:19.962816", "MEAN_MOTION": 13.61281478, "ECCENTRICITY": 0.02444249, "INCLINATION": 100.486, "RA_OF_ASC_NODE": 186.4677, "ARG_OF_PERICENTER": 28.7327, "MEAN_ANOMALY": 332.7029, "EPHEMERIS_TYPE": 0, "CLASSIFICATION_TYPE": "U", "NORAD_CAT_ID": 31991, "ELEMENT_SET_NO": 999, "REV_AT_EPOCH": 62223, "BSTAR": 0.00015589041, "MEAN_MOTION_DOT": 9.4e-07, "MEAN_MOTION_DDOT": 0}, "tle": {"line1": "1 31991U 99025CPU 25356.74536994  .00000094  00000+0  15589-3 0  9999", "line2": "2 31991 100.4860 186.4677 0244424  28.7327 332.7029 13.61281478622234"}}, "geometry": {"type": "Point", "coordinates": [-170.51340116612522, 7.930341475719717]}}, {"type": "Feature", "properties": {"norad_id": 31992, "name": "FENGYUN 1C DEB", "group": "fengyun-1c-debris", "lat": 73.70803364342163, "lon": 172.68968315890808, "alt_km": 1273.933409123967, "timestamp": "2025-12-26T22:28:06.069933+00:00", "meta": {"OBJECT_NAME": "FENGYUN 1C DEB", "OBJECT_ID": "1999-025CPV", "EPOCH": "2025-12-25T15:07:19.981632", "MEAN_MOTION": 13.23021491, "ECCENTRICITY": 0.054228, "INCLINATION": 99.1676, "RA_OF_ASC_NODE": 317.9975, "ARG_OF_PERICENTER": 358.4174, "MEAN_ANOMALY": 1.5217, "EPHEMERIS_TYPE": 0, "CLASSIFICATION_TYPE": "U", "NORAD_CAT_ID": 31992, "ELEMENT_SET_NO": 999, "REV_AT_EPOCH": 54045, "BSTAR": 0.0014253, "MEAN_MOTION_DOT": 1.275e-05, "MEAN_MOTION_DDOT": 0}, "tle": {"line1": "1 31992U 99025CPV 25359.63009238  .00001275  00000+0  14253-2 0  9995", "line2": "2 31992  99.1676 317.9975 0542280 358.4174   1.5217 13.23021491540458"}}, "geometry": {"type": "Point", "coordinates": [172.68968315890808, 73.70803364342163]}}, {"type": "Feature", "properties": {"norad_id": 31993, "name": "FENGYUN 1C DEB", "group": "fengyun-1c-debris", "lat": -3.583982074088539, "lon": -27.70534690654401, "alt_km": 1224.0541837275368, "timestamp": "2025-12-26T22:28:06.069944+00:00", "meta": {"OBJECT_NAME": "FENGYUN 1C DEB", "OBJECT_ID": "1999-025CPW", "EPOCH": "2025-12-24T16:13:16.260096", "MEAN_MOTION": 13.27487792, "ECCENTRICITY": 0.04232112, "INCLINATION": 99.2398, "RA_OF_ASC_NODE": 329.6876, "ARG_OF_PERICENTER": 106.0235, "MEAN_ANOMALY": 258.7919, "EPHEMERIS_TYPE": 0, "CLASSIFICATION_TYPE": "U", "NORAD_CAT_ID": 31993, "ELEMENT_SET_NO": 999, "REV_AT_EPOCH": 89101, "BSTAR": 0.0023117647, "MEAN_MOTION_DOT": 1.659e-05, "MEAN_MOTION_DDOT": 0}, "tle": {"line1": "1 31993U 99025CPW 25358.67588264  .00001659  00000+0  23118-2 0  9996", "line2": "2 31993  99.2398 329.6876 0423211 106.0235 258.7919 13.27487792891018"}}, "geometry": {"type": "Point", "coordinates": [-27.70534690654401, -3.583982074088539]}}, {"type": "Feature", "properties": {"norad_id": 31994, "name": "FENGYUN 1C DEB", "group": "fengyun-1c-debris", "lat": 79.12690280878083, "lon": -57.38305869141657, "alt_km": 792.0116996255647, "timestamp": "2025-12-26T22:28:06.069954+00:00", "meta": {"OBJECT_NAME": "FENGYUN 1C DEB", "OBJECT_ID": "1999-025CPX", "EPOCH": "2025-12-26T06:35:31.148448", "MEAN_MOTION": 13.95762351, "ECCENTRICITY": 0.01627623, "INCLINATION": 98.5398, "RA_OF_ASC_NODE": 353.4695, "ARG_OF_PERICENTER": 108.559, "MEAN_ANOMALY": 253.3332, "EPHEMERIS_TYPE": 0, "CLASSIFICATION_TYPE": "U", "NORAD_CAT_ID": 31994, "ELEMENT_SET_NO": 999, "REV_AT_EPOCH": 56985, "BSTAR": 0.00032764284, "MEAN_MOTION_DOT": 4.61e-06, "MEAN_MOTION_DDOT": 0}, "tle": {"line1": "1 31994U 99025CPX 25360.27466607  .00000461  00000+0  32764-3 0  9990", "line2": "2 31994  98.5398 353.4695 0162762 108.5590 253.3332 13.95762351569853"}}, "geometry": {"type": "Point", "coordinates": [-57.38305869141657, 79.12690280878083]}}, {"type": "Feature", "properties": {"norad_id": 31997, "name": "FENGYUN 1C DEB", "group": "fengyun-1c-debris", "lat": 64.49470709274694, "lon": 20.63222506499206, "alt_km": 1240.8677460137942, "timestamp": "2025-12-26T22:28:06.069965+00:00", "meta": {"OBJECT_NAME": "FENGYUN 1C DEB", "OBJECT_ID": "1999-025CQA", "EPOCH": "2025-12-20T23:11:18.732192", "MEAN_MOTION": 13.60709267, "ECCENTRICITY": 0.02907852, "INCLINATION": 102.5098, "RA_OF_ASC_NODE": 40.7426, "ARG_OF_PERICENTER": 255.2897, "MEAN_ANOMALY": 101.584, "EPHEMERIS_TYPE": 0, "CLASSIFICATION_TYPE": "U", "NORAD_CAT_ID": 31997, "ELEMENT_SET_NO": 999, "REV_AT_EPOCH": 61795, "BSTAR": 0.0020865272, "MEAN_MOTION_DOT": 2.017e-05, "MEAN_MOTION_DDOT": 0}, "tle": {"line1": "1 31997U 99025CQA 25354.96618903  .00002017  00000+0  20865-2 0  9997", "line2": "2 31997 102.5098  40.7426 0290785 255.2897 101.5840 13.60709267617956"}}, "geometry": {"type": "Point", "coordinates": [20.63222506499206, 64.49470709274694]}}, {"type": "Feature", "properties": {"norad_id": 32086, "name": "FENGYUN 1C DEB", "group": "fengyun-1c-debris", "lat": 7.505578330340883, "lon": 54.088042649393024, "alt_km": 1002.4122420250142, "timestamp": "2025-12-26T22:28:06.069975+00:00", "meta": {"OBJECT_NAME": "FENGYUN 1C DEB", "OBJECT_ID": "1999-025CQC", "EPOCH": "2025-12-23T20:45:31.853664", "MEAN_MOTION": 13.68944984, "ECCENTRICITY": 0.029869, "INCLINATION": 99.2686, "RA_OF_ASC_NODE": 52.364, "ARG_OF_PERICENTER": 106.7235, "MEAN_ANOMALY": 256.6913, "EPHEMERIS_TYPE": 0, "CLASSIFICATION_TYPE": "U", "NORAD_CAT_ID": 32086, "ELEMENT_SET_NO": 999, "REV_AT_EPOCH": 61933, "BSTAR": 0.0021459, "MEAN_MOTION_DOT": 2.491e-05, "MEAN_MOTION_DDOT": 0}, "tle": {"line1": "1 32086U 99025CQC 25357.86495201  .00002491  00000+0  21459-2 0  9999", "line2": "2 32086  99.2686  52.3640 0298690 106.7235 256.6913 13.68944984619339"}}, "geometry": {"type": "Point", "coordinates": [54.088042649393024, 7.505578330340883]}}]}